NUSTAR
1 99105U 12099A   12081.65414688  .00000000  00000-0  10000-3 0    17
2 99105   5.9893 124.9997 0033458 304.9858 181.4512 14.84136200    13
